SL-16 R/B               
1 22803U 93059B   26087.11033061 -.00000178  00000+0 -64469-4 0  9999
2 22803  70.9920 332.2838 0017450 189.8461 170.2324 14.17235097682146
ARIANE 40 R/B           
1 22830U 93061H   26087.20360418  .00000219  00000+0  95947-4 0  9990
2 22830  98.4882 155.7229 0009980 224.3998 135.6387 14.32870648696759
COSMOS 2278             
1 23087U 94023A   26087.19802205 -.00000232  00000+0 -96391-4 0  9998
2 23087  71.0518 136.3779 0009135 344.3664  15.7175 14.14375705647424
SL-16 R/B               
1 23088U 94023B   26087.23618927  .00000348  00000+0  20445-3 0  9992
2 23088  71.0016  31.9354 0005460 268.3333  91.7164 14.15014889648711
SL-16 R/B               
1 23343U 94074B   26087.26396223  .00000502  00000+0  73917-4 0  9992
2 23343  97.7083 117.3275 0007246 149.9491 303.4550 14.79428599689992
SL-16 R/B               
1 23405U 94077B   26087.06922375 -.00000036  00000+0  61943-5 0  9995
2 23405  70.9836 313.8241 0001987 197.4092 162.6963 14.15569206618836
ARIANE 40+ R/B          
1 23561U 95021B   26087.23441534  .00000302  00000+0  11005-3 0  9997
2 23561  98.4464 158.4628 0007924  88.7203 339.4007 14.39785511621917
SL-16 R/B               
1 23705U 95058B   26087.21843431 -.00000252  00000+0 -10468-3 0  9995
2 23705  71.0204 141.3572 0010113  91.4853 268.7429 14.15499384570471
SL-16 R/B               
1 24298U 96051B   26087.22537970  .00000099  00000+0  80330-4 0  9999
2 24298  70.7586 136.0080 0013565 118.1818 242.0674 14.12420892524263
ORBVIEW 2 (SEASTAR)     
1 24883U 97037A   26087.16765748  .00000320  00000+0  12765-3 0  9996
2 24883  98.8600 251.9722 0002436  32.0830 328.0502 14.35507646511128
SL-16 R/B               
1 25400U 98043G   26087.11436350  .00000060  00000+0  44170-4 0  9996
2 25400  98.8285  40.6119 0009239 326.7359  33.3239 14.26053893441612
SL-16 R/B               
1 25407U 98045B   26087.22026197 -.00000254  00000+0 -10403-3 0  9999
2 25407  71.0102 142.6074 0007945 339.3634  20.7168 14.16194210429728
ISS (ZARYA)             
1 25544U 98067A   26087.16470415  .00012619  00000+0  24003-3 0  9991
2 25544  51.6345 341.0267 0006226 240.9881 119.0483 15.48601072559196
CZ-4B R/B               
1 25732U 99025C   26087.15073700  .00000049  00000+0  44417-4 0  9996
2 25732  98.6589 130.9920 0036034 292.3811 137.0754 14.18268858390787
OKEAN-O                 
1 25860U 99039A   26087.17237651  .00000716  00000+0  10067-3 0  9996
2 25860  97.9404 146.8725 0000867  91.1994 268.9318 14.80364429437128
SL-16 R/B               
1 25861U 99039B   26087.13487388  .00000562  00000+0  78056-4 0  9999
2 25861  97.9926 146.2004 0014498 192.4766 167.6090 14.81755854439591
DELTA 2 R/B             
1 25876U 99041E   26087.13064120  .00000838  00000+0  17436-3 0  9993
2 25876  51.7606 227.6139 0502653  42.8170 321.0790 14.11878164365634
