[{"OBJECT_NAME":"SL-16 R/B","OBJECT_ID":"1993-059B","EPOCH":"2026-03-28T02:38:52.564704","MEAN_MOTION":14.17235097,"ECCENTRICITY":0.00174502,"INCLINATION":70.992,"RA_OF_ASC_NODE":332.2838,"ARG_OF_PERICENTER":189.8461,"MEAN_ANOMALY":170.2324,"EPHEMERIS_TYPE":0,"CLASSIFICATION_TYPE":"U","NORAD_CAT_ID":22803,"ELEMENT_SET_NO":999,"REV_AT_EPOCH":68214,"BSTAR":-6.4469252e-5,"MEAN_MOTION_DOT":-1.78e-6,"MEAN_MOTION_DDOT":0},{"OBJECT_NAME":"ARIANE 40 R/B","OBJECT_ID":"1993-061H","EPOCH":"2026-03-28T04:53:11.401152","MEAN_MOTION":14.32870648,"ECCENTRICITY":0.00099809,"INCLINATION":98.4882,"RA_OF_ASC_NODE":155.7229,"ARG_OF_PERICENTER":224.3998,"MEAN_ANOMALY":135.6387,"EPHEMERIS_TYPE":0,"CLASSIFICATION_TYPE":"U","NORAD_CAT_ID":22830,"ELEMENT_SET_NO":999,"REV_AT_EPOCH":69675,"BSTAR":9.5946773e-5,"MEAN_MOTION_DOT":2.19e-6,"MEAN_MOTION_DDOT":0},{"OBJECT_NAME":"COSMOS 2278","OBJECT_ID":"1994-023A","EPOCH":"2026-03-28T04:45:09.105120","MEAN_MOTION":14.14375705,"ECCENTRICITY":0.0009135,"INCLINATION":71.0518,"RA_OF_ASC_NODE":136.3779,"ARG_OF_PERICENTER":344.3664,"MEAN_ANOMALY":15.7175,"EPHEMERIS_TYPE":0,"CLASSIFICATION_TYPE":"U","NORAD_CAT_ID":23087,"ELEMENT_SET_NO":999,"REV_AT_EPOCH":64742,"BSTAR":-9.6391024e-5,"MEAN_MOTION_DOT":-2.32e-6,"MEAN_MOTION_DDOT":0},{"OBJECT_NAME":"SL-16 R/B","OBJECT_ID":"1994-023B","EPOCH":"2026-03-28T05:40:06.752928","MEAN_MOTION":14.15014889,"ECCENTRICITY":0.00054604,"INCLINATION":71.0016,"RA_OF_ASC_NODE":31.9354,"ARG_OF_PERICENTER":268.3333,"MEAN_ANOMALY":91.7164,"EPHEMERIS_TYPE":0,"CLASSIFICATION_TYPE":"U","NORAD_CAT_ID":23088,"ELEMENT_SET_NO":999,"REV_AT_EPOCH":64871,"BSTAR":0.00020445273,"MEAN_MOTION_DOT":3.48e-6,"MEAN_MOTION_DDOT":0},{"OBJECT_NAME":"SL-16 R/B","OBJECT_ID":"1994-074B","EPOCH":"2026-03-28T06:20:06.336672","MEAN_MOTION":14.79428599,"ECCENTRICITY":0.00072463,"INCLINATION":97.7083,"RA_OF_ASC_NODE":117.3275,"ARG_OF_PERICENTER":149.9491,"MEAN_ANOMALY":303.455,"EPHEMERIS_TYPE":0,"CLASSIFICATION_TYPE":"U","NORAD_CAT_ID":23343,"ELEMENT_SET_NO":999,"REV_AT_EPOCH":68999,"BSTAR":7.3917278e-5,"MEAN_MOTION_DOT":5.02e-6,"MEAN_MOTION_DDOT":0},{"OBJECT_NAME":"SL-16 R/B","OBJECT_ID":"1994-077B","EPOCH":"2026-03-28T01:39:40.932000","MEAN_MOTION":14.15569206,"ECCENTRICITY":0.0001987,"INCLINATION":70.9836,"RA_OF_ASC_NODE":313.8241,"ARG_OF_PERICENTER":197.4092,"MEAN_ANOMALY":162.6963,"EPHEMERIS_TYPE":0,"CLASSIFICATION_TYPE":"U","NORAD_CAT_ID":23405,"ELEMENT_SET_NO":999,"REV_AT_EPOCH":61883,"BSTAR":6.1943e-6,"MEAN_MOTION_DOT":-3.6e-7,"MEAN_MOTION_DDOT":0},{"OBJECT_NAME":"ARIANE 40+ R/B","OBJECT_ID":"1995-021B","EPOCH":"2026-03-28T05:37:33.485376","MEAN_MOTION":14.39785511,"ECCENTRICITY":0.00079242,"INCLINATION":98.4464,"RA_OF_ASC_NODE":158.4628,"ARG_OF_PERICENTER":88.7203,"MEAN_ANOMALY":339.4007,"EPHEMERIS_TYPE":0,"CLASSIFICATION_TYPE":"U","NORAD_CAT_ID":23561,"ELEMENT_SET_NO":999,"REV_AT_EPOCH":62191,"BSTAR":0.00011005459,"MEAN_MOTION_DOT":3.02e-6,"MEAN_MOTION_DDOT":0},{"OBJECT_NAME":"SL-16 R/B","OBJECT_ID":"1995-058B","EPOCH":"2026-03-28T05:14:32.724384","MEAN_MOTION":14.15499384,"ECCENTRICITY":0.00101131,"INCLINATION":71.0204,"RA_OF_ASC_NODE":141.3572,"ARG_OF_PERICENTER":91.4853,"MEAN_ANOMALY":268.7429,"EPHEMERIS_TYPE":0,"CLASSIFICATION_TYPE":"U","NORAD_CAT_ID":23705,"ELEMENT_SET_NO":999,"REV_AT_EPOCH":57047,"BSTAR":-0.00010467991,"MEAN_MOTION_DOT":-2.52e-6,"MEAN_MOTION_DDOT":0},{"OBJECT_NAME":"SL-16 R/B","OBJECT_ID":"1996-051B","EPOCH":"2026-03-28T05:24:32.806080","MEAN_MOTION":14.12420892,"ECCENTRICITY":0.00135656,"INCLINATION":70.7586,"RA_OF_ASC_NODE":136.008,"ARG_OF_PERICENTER":118.1818,"MEAN_ANOMALY":242.0674,"EPHEMERIS_TYPE":0,"CLASSIFICATION_TYPE":"U","NORAD_CAT_ID":24298,"ELEMENT_SET_NO":999,"REV_AT_EPOCH":52426,"BSTAR":8.0329531e-5,"MEAN_MOTION_DOT":9.9e-7,"MEAN_MOTION_DDOT":0},{"OBJECT_NAME":"ORBVIEW 2 (SEASTAR)","OBJECT_ID":"1997-037A","EPOCH":"2026-03-28T04:01:25.606272","MEAN_MOTION":14.35507646,"ECCENTRICITY":0.00024364,"INCLINATION":98.86,"RA_OF_ASC_NODE":251.9722,"ARG_OF_PERICENTER":32.083,"MEAN_ANOMALY":328.0502,"EPHEMERIS_TYPE":0,"CLASSIFICATION_TYPE":"U","NORAD_CAT_ID":24883,"ELEMENT_SET_NO":999,"REV_AT_EPOCH":51112,"BSTAR":0.00012764522,"MEAN_MOTION_DOT":3.2e-6,"MEAN_MOTION_DDOT":0},{"OBJECT_NAME":"SL-16 R/B","OBJECT_ID":"1998-043G","EPOCH":"2026-03-28T02:44:41.006400","MEAN_MOTION":14.26053893,"ECCENTRICITY":0.0009239,"INCLINATION":98.8285,"RA_OF_ASC_NODE":40.6119,"ARG_OF_PERICENTER":326.7359,"MEAN_ANOMALY":33.3239,"EPHEMERIS_TYPE":0,"CLASSIFICATION_TYPE":"U","NORAD_CAT_ID":25400,"ELEMENT_SET_NO":999,"REV_AT_EPOCH":44161,"BSTAR":4.417e-5,"MEAN_MOTION_DOT":6.0e-7,"MEAN_MOTION_DDOT":0},{"OBJECT_NAME":"SL-16 R/B","OBJECT_ID":"1998-045B","EPOCH":"2026-03-28T05:17:10.634208","MEAN_MOTION":14.1619421,"ECCENTRICITY":0.00079455,"INCLINATION":71.0102,"RA_OF_ASC_NODE":142.6074,"ARG_OF_PERICENTER":339.3634,"MEAN_ANOMALY":20.7168,"EPHEMERIS_TYPE":0,"CLASSIFICATION_TYPE":"U","NORAD_CAT_ID":25407,"ELEMENT_SET_NO":999,"REV_AT_EPOCH":42972,"BSTAR":-0.00010402748,"MEAN_MOTION_DOT":-2.54e-6,"MEAN_MOTION_DDOT":0},{"OBJECT_NAME":"ISS (ZARYA)","OBJECT_ID":"1998-067A","EPOCH":"2026-03-28T03:57:10.438560","MEAN_MOTION":15.48601072,"ECCENTRICITY":0.00062264,"INCLINATION":51.6345,"RA_OF_ASC_NODE":341.0267,"ARG_OF_PERICENTER":240.9881,"MEAN_ANOMALY":119.0483,"EPHEMERIS_TYPE":0,"CLASSIFICATION_TYPE":"U","NORAD_CAT_ID":25544,"ELEMENT_SET_NO":999,"REV_AT_EPOCH":55919,"BSTAR":0.00024002995,"MEAN_MOTION_DOT":0.00012619,"MEAN_MOTION_DDOT":0},{"OBJECT_NAME":"CZ-4B R/B","OBJECT_ID":"1999-025C","EPOCH":"2026-03-28T03:37:03.676800","MEAN_MOTION":14.18268858,"ECCENTRICITY":0.00360344,"INCLINATION":98.6589,"RA_OF_ASC_NODE":130.992,"ARG_OF_PERICENTER":292.3811,"MEAN_ANOMALY":137.0754,"EPHEMERIS_TYPE":0,"CLASSIFICATION_TYPE":"U","NORAD_CAT_ID":25732,"ELEMENT_SET_NO":999,"REV_AT_EPOCH":39078,"BSTAR":4.4416775e-5,"MEAN_MOTION_DOT":4.9e-7,"MEAN_MOTION_DDOT":0},{"OBJECT_NAME":"OKEAN-O","OBJECT_ID":"1999-039A","EPOCH":"2026-03-28T04:08:13.330464","MEAN_MOTION":14.80364429,"ECCENTRICITY":8.673e-5,"INCLINATION":97.9404,"RA_OF_ASC_NODE":146.8725,"ARG_OF_PERICENTER":91.1994,"MEAN_ANOMALY":268.9318,"EPHEMERIS_TYPE":0,"CLASSIFICATION_TYPE":"U","NORAD_CAT_ID":25860,"ELEMENT_SET_NO":999,"REV_AT_EPOCH":43712,"BSTAR":0.00010066885,"MEAN_MOTION_DOT":7.16e-6,"MEAN_MOTION_DDOT":0},{"OBJECT_NAME":"SL-16 R/B","OBJECT_ID":"1999-039B","EPOCH":"2026-03-28T03:14:13.103232","MEAN_MOTION":14.81755854,"ECCENTRICITY":0.00144988,"INCLINATION":97.9926,"RA_OF_ASC_NODE":146.2004,"ARG_OF_PERICENTER":192.4766,"MEAN_ANOMALY":167.609,"EPHEMERIS_TYPE":0,"CLASSIFICATION_TYPE":"U","NORAD_CAT_ID":25861,"ELEMENT_SET_NO":999,"REV_AT_EPOCH":43959,"BSTAR":7.8055779e-5,"MEAN_MOTION_DOT":5.62e-6,"MEAN_MOTION_DDOT":0},{"OBJECT_NAME":"DELTA 2 R/B","OBJECT_ID":"1999-041E","EPOCH":"2026-03-28T03:08:07.399680","MEAN_MOTION":14.11878164,"ECCENTRICITY":0.05026536,"INCLINATION":51.7606,"RA_OF_ASC_NODE":227.6139,"ARG_OF_PERICENTER":42.817,"MEAN_ANOMALY":321.079,"EPHEMERIS_TYPE":0,"CLASSIFICATION_TYPE":"U","NORAD_CAT_ID":25876,"ELEMENT_SET_NO":999,"REV_AT_EPOCH":36563,"BSTAR":0.00017435623,"MEAN_MOTION_DOT":8.38e-6,"MEAN_MOTION_DDOT":0}]
